{
"type": "FeatureCollection",
"name": "Samoylov_catchment",
"crs": { "type": "name", "properties": { "name": "urn:ogc:def:crs:EPSG::32652" } },
"features": [
{ "type": "Feature", "properties": { "id": 1, "catchment": null }, "geometry": { "type": "MultiPolygon", "coordinates": [ [ [ [ 414892.685567785869353, 8033127.26612146012485 ], [ 414921.073974190629087, 8033165.117329999804497 ], [ 414921.073974190629087, 8033165.117329999804497 ], [ 415010.970594472251832, 8033167.483030533418059 ], [ 415209.689439305395354, 8033134.363223060965538 ], [ 415346.900070261617657, 8033098.877715055830777 ], [ 415491.207802819029894, 8033065.757907583378255 ], [ 415574.007321499462705, 8033001.883993173018098 ], [ 415659.172540713683702, 8032942.741479829885066 ], [ 415739.606358860444743, 8032845.747757947072387 ], [ 415739.606358860444743, 8032734.55983286164701 ], [ 415704.120850854495075, 8032606.812004039995372 ], [ 415635.515535376383923, 8032495.624078954569995 ], [ 415555.08171722968109, 8032431.750164544209838 ], [ 415410.773984672268853, 8032389.167554937303066 ], [ 415337.437268126697745, 8032422.287362409755588 ], [ 415264.100551581126638, 8032483.795576286502182 ], [ 415190.76383503555553, 8032585.520699236541986 ], [ 415084.30731101782294, 8032670.68591845035553 ], [ 415041.724701410741545, 8032779.508143002167344 ], [ 415022.799097140901722, 8032848.113458480685949 ], [ 414956.559482196520548, 8032876.501864884980023 ], [ 414876.125664049759507, 8032947.472880897112191 ], [ 414880.857065117219463, 8033032.638100110925734 ], [ 414892.685567785869353, 8033127.26612146012485 ] ] ] ] } }
]
}
